Address,Date time,Minimum Temperature,Maximum Temperature,Temperature,Dew Point,Relative Humidity,Heat Index,Wind Speed,Wind Gust,Wind Direction,Wind Chill,Precipitation,Precipitation Cover,Snow Depth,Visibility,Cloud Cover,Sea Level Pressure,Weather Type,Latitude,Longitude,Resolved Address,Name,Info,Conditions
"-15.82166667,-47.97568167",10/02/2020 03:01:00,18.3,18.3,18.3,8.4,52.19,,2.4,,124.0,,0.0,,0.0,14.0,0.0,1013.8,Sky Coverage Increasing,-15.82166667,-47.97568167,"-15.82166667,-47.97568167","-15.82166667,-47.97568167",,Clear
"-15.82166667,-47.97568167",10/02/2020 04:01:00,19.8,19.8,19.8,7.7,45.62,,3.9,,147.0,,0.0,,0.0,10.0,0.0,1013.2,,-15.82166667,-47.97568167,"-15.82166667,-47.97568167","-15.82166667,-47.97568167",,Clear
"-15.82166667,-47.97568167",10/02/2020 05:01:00,18.0,18.0,18.0,9.1,56.24,,3.3,,328.0,,0.0,,0.0,10.0,0.0,1015.0,,-15.82166667,-47.97568167,"-15.82166667,-47.97568167","-15.82166667,-47.97568167",,Clear
"-15.82166667,-47.97568167",10/02/2020 06:01:00,17.0,17.0,17.0,8.2,56.23,,1.8,,7.0,,0.0,,0.0,10.0,0.0,1016.0,,-15.82166667,-47.97568167,"-15.82166667,-47.97568167","-15.82166667,-47.97568167",,Clear
"-15.82166667,-47.97568167",10/02/2020 07:01:00,20.0,20.0,20.0,9.5,50.74,,3.5,,41.0,,0.0,,0.0,10.0,0.0,1014.3,,-15.82166667,-47.97568167,"-15.82166667,-47.97568167","-15.82166667,-47.97568167",,Clear
"-15.82166667,-47.97568167",10/02/2020 08:01:00,23.7,23.7,23.7,8.7,38.52,,6.4,,56.0,,0.0,,0.0,10.0,0.0,1014.4,,-15.82166667,-47.97568167,"-15.82166667,-47.97568167","-15.82166667,-47.97568167",,Clear
"-15.82166667,-47.97568167",10/02/2020 09:01:00,27.5,27.5,27.5,10.1,33.64,26.9,10.9,,53.0,,0.0,,0.0,14.0,0.0,1013.9,,-15.82166667,-47.97568167,"-15.82166667,-47.97568167","-15.82166667,-47.97568167",,Clear
"-15.82166667,-47.97568167",10/02/2020 10:01:00,29.6,29.6,29.6,9.5,28.59,28.3,12.4,,36.0,,0.0,,0.0,10.0,0.0,1013.0,,-15.82166667,-47.97568167,"-15.82166667,-47.97568167","-15.82166667,-47.97568167",,Clear
"-15.82166667,-47.97568167",10/02/2020 11:01:00,31.1,31.1,31.1,7.8,23.53,29.3,15.4,,45.0,,0.0,,0.0,10.0,0.0,1012.2,,-15.82166667,-47.97568167,"-15.82166667,-47.97568167","-15.82166667,-47.97568167",,Clear
"-15.82166667,-47.97568167",10/02/2020 12:01:00,32.0,32.0,32.0,5.5,19.03,29.9,17.6,42.5,63.0,,0.0,,0.0,10.0,0.0,1011.1,,-15.82166667,-47.97568167,"-15.82166667,-47.97568167","-15.82166667,-47.97568167",,Clear
"-15.82166667,-47.97568167",10/02/2020 13:01:00,32.4,32.4,32.4,6.1,19.34,30.4,18.2,,65.0,,0.0,,0.0,10.0,0.0,1009.6,,-15.82166667,-47.97568167,"-15.82166667,-47.97568167","-15.82166667,-47.97568167",,Clear
"-15.82166667,-47.97568167",10/02/2020 14:01:00,33.0,33.0,33.0,6.3,18.97,30.9,10.1,,45.0,,0.0,,0.0,10.0,0.0,1008.6,,-15.82166667,-47.97568167,"-15.82166667,-47.97568167","-15.82166667,-47.97568167",,Clear
"-15.82166667,-47.97568167",10/02/2020 15:01:00,33.7,33.7,33.7,2.3,13.82,31.3,17.1,,73.0,,0.0,,0.0,14.0,0.0,1007.3,,-15.82166667,-47.97568167,"-15.82166667,-47.97568167","-15.82166667,-47.97568167",,Clear
"-15.82166667,-47.97568167",10/02/2020 16:01:00,33.4,33.4,33.4,2.4,14.15,31.0,14.1,,73.0,,0.0,,0.0,10.0,0.0,1007.1,,-15.82166667,-47.97568167,"-15.82166667,-47.97568167","-15.82166667,-47.97568167",,Clear
"-15.82166667,-47.97568167",10/02/2020 17:01:00,33.2,33.2,33.2,3.0,14.92,30.9,15.6,,82.0,,0.0,,0.0,10.0,0.0,1007.4,,-15.82166667,-47.97568167,"-15.82166667,-47.97568167","-15.82166667,-47.97568167",,Clear
"-15.82166667,-47.97568167",10/02/2020 18:01:00,31.4,31.4,31.4,4.2,17.92,29.3,12.2,,78.0,,0.0,,0.0,10.0,0.0,1008.3,,-15.82166667,-47.97568167,"-15.82166667,-47.97568167","-15.82166667,-47.97568167",,Clear
"-15.82166667,-47.97568167",10/02/2020 19:01:00,29.4,29.4,29.4,3.9,19.73,27.8,10.9,,92.0,,0.0,,0.0,10.0,0.0,1010.0,,-15.82166667,-47.97568167,"-15.82166667,-47.97568167","-15.82166667,-47.97568167",,Clear
"-15.82166667,-47.97568167",10/02/2020 20:01:00,28.4,28.4,28.4,3.9,20.82,27.0,9.5,,99.0,,0.0,,0.0,10.0,0.0,1010.9,,-15.82166667,-47.97568167,"-15.82166667,-47.97568167","-15.82166667,-47.97568167",,Clear
"-15.82166667,-47.97568167",10/02/2020 21:01:00,27.5,27.5,27.5,4.8,23.41,26.5,7.7,,99.0,,0.0,,0.0,14.0,0.0,1011.7,,-15.82166667,-47.97568167,"-15.82166667,-47.97568167","-15.82166667,-47.97568167",,Clear
"-15.82166667,-47.97568167",10/02/2020 22:01:00,25.1,25.1,25.1,5.5,28.48,,3.8,,46.0,,0.0,,0.0,10.0,0.0,1012.3,,-15.82166667,-47.97568167,"-15.82166667,-47.97568167","-15.82166667,-47.97568167",,Clear
"-15.82166667,-47.97568167",10/02/2020 23:01:00,23.0,23.0,23.0,6.2,33.7,,4.1,,46.0,,0.0,,0.0,10.0,0.0,1012.5,,-15.82166667,-47.97568167,"-15.82166667,-47.97568167","-15.82166667,-47.97568167",,Clear
"-15.82166667,-47.97568167",10/03/2020 00:01:00,21.2,21.2,21.2,6.7,38.9,,5.7,,189.0,,0.0,,0.0,10.0,0.0,1012.9,,-15.82166667,-47.97568167,"-15.82166667,-47.97568167","-15.82166667,-47.97568167",,Clear
"-15.82166667,-47.97568167",10/03/2020 01:01:00,21.3,21.3,21.3,6.6,38.57,,5.7,,344.0,,0.0,,0.0,10.0,0.0,1012.5,,-15.82166667,-47.97568167,"-15.82166667,-47.97568167","-15.82166667,-47.97568167",,Clear
"-15.82166667,-47.97568167",10/03/2020 02:01:00,18.6,18.6,18.6,7.8,49.22,,5.9,,244.0,,0.0,,0.0,10.0,0.0,1014.4,,-15.82166667,-47.97568167,"-15.82166667,-47.97568167","-15.82166667,-47.97568167",,Clear
"-15.82166667,-47.97568167",10/03/2020 03:01:00,18.4,18.4,18.4,7.1,47.51,,5.4,,251.0,,0.0,,0.0,14.0,0.0,1014.4,,-15.82166667,-47.97568167,"-15.82166667,-47.97568167","-15.82166667,-47.97568167",,Clear
