Address,Date time,Minimum Temperature,Maximum Temperature,Temperature,Dew Point,Relative Humidity,Heat Index,Wind Speed,Wind Gust,Wind Direction,Wind Chill,Precipitation,Precipitation Cover,Snow Depth,Visibility,Cloud Cover,Sea Level Pressure,Weather Type,Latitude,Longitude,Resolved Address,Name,Info,Conditions
"-15.82144333,-47.97533167",10/14/2020 00:14:52,20.8,20.8,20.8,17.6,82.15,,3.0,,139.0,,0.0,,0.0,10.0,15.9,1015.2,Lightning Without Thunder,-15.82144333,-47.97533167,"-15.82144333,-47.97533167","-15.82144333,-47.97533167",,Clear
"-15.82144333,-47.97533167",10/14/2020 01:14:52,20.2,20.2,20.2,17.1,82.53,,1.9,,307.0,,0.0,,0.0,10.0,29.4,1014.8,Lightning Without Thunder,-15.82144333,-47.97533167,"-15.82144333,-47.97533167","-15.82144333,-47.97533167",,Partially cloudy
"-15.82144333,-47.97533167",10/14/2020 02:14:52,20.7,20.7,20.7,17.1,79.98,,4.1,,127.0,,0.0,,0.0,14.0,10.9,1014.0,,-15.82144333,-47.97533167,"-15.82144333,-47.97533167","-15.82144333,-47.97533167",,Clear
"-15.82144333,-47.97533167",10/14/2020 03:14:52,19.0,19.0,19.0,16.9,87.42,,2.0,,54.0,,0.0,,0.0,10.0,29.4,1014.8,Lightning Without Thunder,-15.82144333,-47.97533167,"-15.82144333,-47.97533167","-15.82144333,-47.97533167",,Partially cloudy
"-15.82144333,-47.97533167",10/14/2020 04:14:52,20.2,20.2,20.2,16.8,81.07,,20.0,,93.0,,0.0,,0.0,10.0,29.4,1015.1,,-15.82144333,-47.97533167,"-15.82144333,-47.97533167","-15.82144333,-47.97533167",,Partially cloudy
"-15.82144333,-47.97533167",10/14/2020 05:14:52,20.4,20.4,20.4,17.2,82.07,,9.3,,59.0,,0.0,,0.0,10.0,52.3,1015.9,,-15.82144333,-47.97533167,"-15.82144333,-47.97533167","-15.82144333,-47.97533167",,Partially cloudy
"-15.82144333,-47.97533167",10/14/2020 06:14:52,19.8,19.8,19.8,18.0,88.94,,6.1,,126.0,,0.0,,0.0,10.0,52.3,1017.5,Light Rain,-15.82144333,-47.97533167,"-15.82144333,-47.97533167","-15.82144333,-47.97533167",,Partially cloudy
"-15.82144333,-47.97533167",10/14/2020 07:14:52,20.5,20.5,20.5,17.9,85.31,,5.6,,180.0,,0.0,,0.0,10.0,52.3,1017.9,,-15.82144333,-47.97533167,"-15.82144333,-47.97533167","-15.82144333,-47.97533167",,Partially cloudy
"-15.82144333,-47.97533167",10/14/2020 08:14:52,23.5,23.5,23.5,17.3,67.89,,7.0,,177.0,,0.0,,0.0,14.0,45.3,1016.9,,-15.82144333,-47.97533167,"-15.82144333,-47.97533167","-15.82144333,-47.97533167",,Partially cloudy
"-15.82144333,-47.97533167",10/14/2020 09:14:52,26.2,26.2,26.2,16.2,54.13,,18.7,,78.0,,0.0,,0.0,10.0,0.0,1015.9,,-15.82144333,-47.97533167,"-15.82144333,-47.97533167","-15.82144333,-47.97533167",,Clear
"-15.82144333,-47.97533167",10/14/2020 10:14:52,26.7,26.7,26.7,17.1,55.82,,14.9,,58.0,,0.0,,0.0,10.0,0.0,1014.8,,-15.82144333,-47.97533167,"-15.82144333,-47.97533167","-15.82144333,-47.97533167",,Clear
"-15.82144333,-47.97533167",10/14/2020 11:14:52,26.8,26.8,26.8,17.2,55.54,27.6,12.7,,51.0,,0.0,,0.0,10.0,0.0,1014.1,,-15.82144333,-47.97533167,"-15.82144333,-47.97533167","-15.82144333,-47.97533167",,Clear
"-15.82144333,-47.97533167",10/14/2020 12:14:52,28.6,28.6,28.6,16.9,49.13,29.1,8.3,,19.0,,0.0,,0.0,10.0,15.9,1012.3,,-15.82144333,-47.97533167,"-15.82144333,-47.97533167","-15.82144333,-47.97533167",,Clear
"-15.82144333,-47.97533167",10/14/2020 13:14:52,29.1,29.1,29.1,16.4,46.36,29.3,9.1,,88.0,,0.0,,0.0,10.0,15.9,1010.5,,-15.82144333,-47.97533167,"-15.82144333,-47.97533167","-15.82144333,-47.97533167",,Clear
"-15.82144333,-47.97533167",10/14/2020 14:14:52,29.4,29.4,29.4,16.3,45.15,29.5,9.8,,124.0,,0.0,,0.0,14.0,45.3,1009.7,Lightning Without Thunder,-15.82144333,-47.97533167,"-15.82144333,-47.97533167","-15.82144333,-47.97533167",,Partially cloudy
"-15.82144333,-47.97533167",10/14/2020 15:14:52,29.6,29.6,29.6,16.1,43.97,29.7,7.9,,137.0,,0.0,,0.0,10.0,29.4,1008.5,Lightning Without Thunder,-15.82144333,-47.97533167,"-15.82144333,-47.97533167","-15.82144333,-47.97533167",,Partially cloudy
"-15.82144333,-47.97533167",10/14/2020 16:14:52,29.2,29.2,29.2,16.0,44.84,29.4,9.7,,112.0,,0.0,,0.0,10.0,52.3,1009.3,Thunderstorm Without Precipitation,-15.82144333,-47.97533167,"-15.82144333,-47.97533167","-15.82144333,-47.97533167",,Partially cloudy
"-15.82144333,-47.97533167",10/14/2020 17:14:52,26.0,26.0,26.0,16.4,55.4,,12.7,,326.0,,0.0,,0.0,10.0,29.4,1011.3,,-15.82144333,-47.97533167,"-15.82144333,-47.97533167","-15.82144333,-47.97533167",,Partially cloudy
"-15.82144333,-47.97533167",10/14/2020 18:14:52,25.0,25.0,25.0,17.1,61.49,,4.8,,31.0,,0.0,,0.0,10.0,20.6,1012.7,Lightning Without Thunder,-15.82144333,-47.97533167,"-15.82144333,-47.97533167","-15.82144333,-47.97533167",,Clear
"-15.82144333,-47.97533167",10/14/2020 19:14:52,24.8,24.8,24.8,16.2,58.95,,11.1,,8.0,,0.0,,0.0,10.0,15.9,1013.4,,-15.82144333,-47.97533167,"-15.82144333,-47.97533167","-15.82144333,-47.97533167",,Clear
"-15.82144333,-47.97533167",10/14/2020 20:14:52,23.6,23.6,23.6,15.6,61.01,,5.2,,284.0,,0.0,,0.0,14.0,3.6,1014.5,Sky Coverage Decreasing,-15.82144333,-47.97533167,"-15.82144333,-47.97533167","-15.82144333,-47.97533167",,Clear
"-15.82144333,-47.97533167",10/14/2020 21:14:52,22.6,22.6,22.6,16.2,67.11,,2.2,,166.0,,0.0,,0.0,10.0,0.0,1015.4,,-15.82144333,-47.97533167,"-15.82144333,-47.97533167","-15.82144333,-47.97533167",,Clear
"-15.82144333,-47.97533167",10/14/2020 22:14:52,21.4,21.4,21.4,16.8,74.97,,2.1,,307.0,,0.0,,0.0,10.0,0.0,1016.4,,-15.82144333,-47.97533167,"-15.82144333,-47.97533167","-15.82144333,-47.97533167",,Clear
"-15.82144333,-47.97533167",10/14/2020 23:14:52,21.6,21.6,21.6,15.8,69.49,,4.8,,82.0,,0.0,,0.0,10.0,0.0,1014.0,,-15.82144333,-47.97533167,"-15.82144333,-47.97533167","-15.82144333,-47.97533167",,Clear
"-15.82144333,-47.97533167",10/15/2020 00:14:52,19.6,19.6,19.6,16.3,81.28,,3.5,,264.0,,0.0,,0.0,10.0,0.0,1015.2,,-15.82144333,-47.97533167,"-15.82144333,-47.97533167","-15.82144333,-47.97533167",,Clear
