Address,Date time,Minimum Temperature,Maximum Temperature,Temperature,Dew Point,Relative Humidity,Heat Index,Wind Speed,Wind Gust,Wind Direction,Wind Chill,Precipitation,Precipitation Cover,Snow Depth,Visibility,Cloud Cover,Sea Level Pressure,Weather Type,Latitude,Longitude,Resolved Address,Name,Info,Conditions
"-15.83020667,-47.98135833",02/26/2021 06:03:34,20.0,20.0,20.0,18.0,88.5,,8.4,,358.0,,0.0,,,8.6,59.8,1013.3,Light Rain,-15.83020667,-47.98135833,"-15.83020667,-47.98135833","-15.83020667,-47.98135833",,Partially cloudy
"-15.83020667,-47.98135833",02/26/2021 07:03:34,20.4,20.4,20.4,18.8,90.37,,5.6,,280.0,,0.0,,,9.3,52.4,1012.6,Rain,-15.83020667,-47.98135833,"-15.83020667,-47.98135833","-15.83020667,-47.98135833",,Partially cloudy
"-15.83020667,-47.98135833",02/26/2021 08:03:34,20.3,20.3,20.3,18.0,86.64,,5.1,,278.0,,0.0,,,8.7,59.8,1012.4,,-15.83020667,-47.98135833,"-15.83020667,-47.98135833","-15.83020667,-47.98135833",,Partially cloudy
"-15.83020667,-47.98135833",02/26/2021 09:03:34,20.5,20.5,20.5,18.8,90.48,,6.5,,266.0,,0.0,,,9.3,59.8,1012.0,Light Rain,-15.83020667,-47.98135833,"-15.83020667,-47.98135833","-15.83020667,-47.98135833",,Partially cloudy
"-15.83020667,-47.98135833",02/26/2021 10:03:34,22.4,22.4,22.4,19.1,81.57,,6.5,,302.0,,0.0,,,13.7,59.9,1011.2,Thunderstorm,-15.83020667,-47.98135833,"-15.83020667,-47.98135833","-15.83020667,-47.98135833",,Partially cloudy
"-15.83020667,-47.98135833",02/26/2021 11:03:34,21.4,21.4,21.4,18.7,84.52,,11.1,,260.0,,0.0,,,8.7,59.8,1011.0,Precipitation In Vicinity,-15.83020667,-47.98135833,"-15.83020667,-47.98135833","-15.83020667,-47.98135833",,Partially cloudy
"-15.83020667,-47.98135833",02/26/2021 12:03:34,20.9,20.9,20.9,18.8,88.16,,8.8,,262.0,,0.0,,,10.0,59.8,1011.4,Precipitation In Vicinity,-15.83020667,-47.98135833,"-15.83020667,-47.98135833","-15.83020667,-47.98135833",,Partially cloudy
"-15.83020667,-47.98135833",02/26/2021 13:03:34,20.9,20.9,20.9,18.2,84.97,,8.7,,273.0,,0.0,,,13.7,59.8,1011.5,,-15.83020667,-47.98135833,"-15.83020667,-47.98135833","-15.83020667,-47.98135833",,Partially cloudy
"-15.83020667,-47.98135833",02/26/2021 14:03:34,20.3,20.3,20.3,18.6,90.02,,11.2,,284.0,,0.0,,,8.7,59.8,1012.0,,-15.83020667,-47.98135833,"-15.83020667,-47.98135833","-15.83020667,-47.98135833",,Partially cloudy
"-15.83020667,-47.98135833",02/26/2021 15:03:34,20.5,20.5,20.5,18.5,87.89,,6.6,,325.0,,0.0,,,10.0,59.9,1012.9,Thunderstorm,-15.83020667,-47.98135833,"-15.83020667,-47.98135833","-15.83020667,-47.98135833",,Partially cloudy
"-15.83020667,-47.98135833",02/26/2021 16:03:34,20.6,20.6,20.6,18.4,87.18,,8.9,33.5,314.0,,0.0,,,13.7,59.8,1013.6,,-15.83020667,-47.98135833,"-15.83020667,-47.98135833","-15.83020667,-47.98135833",,Partially cloudy
"-15.83020667,-47.98135833",02/26/2021 17:03:34,20.1,20.1,20.1,18.6,90.8,,6.1,,341.0,,0.0,,,10.0,59.8,1014.7,,-15.83020667,-47.98135833,"-15.83020667,-47.98135833","-15.83020667,-47.98135833",,Partially cloudy
"-15.83020667,-47.98135833",02/26/2021 18:03:34,20.1,20.1,20.1,18.3,89.11,,8.4,,357.0,,0.0,,,10.0,59.8,1015.4,,-15.83020667,-47.98135833,"-15.83020667,-47.98135833","-15.83020667,-47.98135833",,Partially cloudy
"-15.83020667,-47.98135833",02/26/2021 19:03:34,19.4,19.4,19.4,17.9,90.9,,10.5,,48.0,,0.0,,,11.8,59.8,1015.8,Mist,-15.83020667,-47.98135833,"-15.83020667,-47.98135833","-15.83020667,-47.98135833",,Partially cloudy
"-15.83020667,-47.98135833",02/26/2021 20:03:34,19.3,19.3,19.3,18.2,93.4,,6.1,,50.0,,0.0,,,10.0,59.8,1015.1,,-15.83020667,-47.98135833,"-15.83020667,-47.98135833","-15.83020667,-47.98135833",,Partially cloudy
"-15.83020667,-47.98135833",02/26/2021 21:03:34,19.3,19.3,19.3,17.8,91.11,,6.1,,44.0,,0.0,,,10.0,59.8,1014.7,,-15.83020667,-47.98135833,"-15.83020667,-47.98135833","-15.83020667,-47.98135833",,Partially cloudy
"-15.83020667,-47.98135833",02/26/2021 22:03:34,19.2,19.2,19.2,18.2,94.45,,4.0,,53.0,,0.0,,,13.3,62.3,1014.5,Mist,-15.83020667,-47.98135833,"-15.83020667,-47.98135833","-15.83020667,-47.98135833",,Partially cloudy
"-15.83020667,-47.98135833",02/26/2021 23:03:34,19.3,19.3,19.3,18.3,94.12,,6.9,,79.0,,0.0,,,10.0,62.3,1013.8,,-15.83020667,-47.98135833,"-15.83020667,-47.98135833","-15.83020667,-47.98135833",,Partially cloudy
"-15.83020667,-47.98135833",02/27/2021 00:03:34,18.8,18.8,18.8,17.8,93.92,,4.6,,80.0,,0.0,,,10.0,62.3,1014.0,,-15.83020667,-47.98135833,"-15.83020667,-47.98135833","-15.83020667,-47.98135833",,Partially cloudy
"-15.83020667,-47.98135833",02/27/2021 01:03:34,18.8,18.8,18.8,17.9,94.37,,7.8,,74.0,,0.0,,,13.3,59.8,1014.3,Mist,-15.83020667,-47.98135833,"-15.83020667,-47.98135833","-15.83020667,-47.98135833",,Partially cloudy
"-15.83020667,-47.98135833",02/27/2021 02:03:34,18.9,18.9,18.9,18.1,95.6,,9.3,,75.0,,0.0,,,10.0,59.8,1014.7,,-15.83020667,-47.98135833,"-15.83020667,-47.98135833","-15.83020667,-47.98135833",,Partially cloudy
"-15.83020667,-47.98135833",02/27/2021 03:03:34,19.3,19.3,19.3,18.2,93.39,,7.7,,75.0,,0.0,,,10.0,67.4,1015.0,,-15.83020667,-47.98135833,"-15.83020667,-47.98135833","-15.83020667,-47.98135833",,Partially cloudy
"-15.83020667,-47.98135833",02/27/2021 04:03:34,19.3,19.3,19.3,18.2,93.61,,7.3,,67.0,,1.26,,,13.7,67.5,1015.7,Rain,-15.83020667,-47.98135833,"-15.83020667,-47.98135833","-15.83020667,-47.98135833",,"Rain, Partially cloudy"
"-15.83020667,-47.98135833",02/27/2021 05:03:34,19.5,19.5,19.5,18.4,93.65,,6.9,,53.0,,0.0,,,7.4,64.9,1015.7,"Precipitation In Vicinity, Light Rain",-15.83020667,-47.98135833,"-15.83020667,-47.98135833","-15.83020667,-47.98135833",,Partially cloudy
"-15.83020667,-47.98135833",02/27/2021 06:03:34,19.6,19.6,19.6,18.5,92.95,,11.6,,64.0,,0.0,,,7.8,59.8,1015.5,Precipitation In Vicinity,-15.83020667,-47.98135833,"-15.83020667,-47.98135833","-15.83020667,-47.98135833",,Partially cloudy
